ONEWEB-0520             
1 54138U 22138AB  24338.46466643  .00000125  00000+0  27966-3 0  9996
2 54138  87.9185  56.4555 0001621  88.0684 272.0635 13.19727057103736
ONEWEB-0521             
1 54139U 22138AC  24338.19457322  .00000136  00000+0  30798-3 0  9990
2 54139  87.9167  56.4994 0001968 105.8794 254.2556 13.19726298103671
ONEWEB-0522             
1 54140U 22138AD  24337.49168271  .00000093  00000+0  20113-3 0  9998
2 54140  87.9184  56.6412 0001675  99.9949 260.1372 13.19725813102728
ONEWEB-0523             
1 54141U 22138AE  24337.89993964  .00000074  00000+0  15129-3 0  9998
2 54141  87.9273  26.1098 0002195 125.0640 235.0699 13.20772145106085
ONEWEB-0524             
1 54142U 22138AF  24337.88888380  .00000063  00000+0  12419-3 0  9990
2 54142  87.9267  26.1145 0001106 128.9421 231.1811 13.20770228105219
ONEWEB-0525             
1 54143U 22138AG  24338.49625721  .00000081  00000+0  16933-3 0  9992
2 54143  87.9187  56.4547 0001715  89.0613 271.0716 13.19727216103749
ONEWEB-0526             
1 54144U 22138AH  24338.45360716  .00000020  00000+0  17449-4 0  9996
2 54144  87.9183  56.4553 0001629  98.1863 261.9455 13.19725836103716
ONEWEB-0529             
1 54145U 22138AJ  24338.45676633  .00000084  00000+0  17755-3 0  9994
2 54145  87.9189  56.4821 0001651  91.9424 268.1897 13.19726170103733
